{
"type": "FeatureCollection",
"name": "kielce_hex_boundary",
"crs": { "type": "name", "properties": { "name": "urn:ogc:def:crs:OGC:1.3:CRS84" } },
"xy_coordinate_resolution": 1e-15,
"features": [
{ "type": "Feature", "properties": { "id": 14, "left": 606151.77857279265, "top": 333598.50538962521, "right": 606729.12884198222, "bottom": 333098.50538962521, "row_index": 13, "col_index": 0 }, "geometry": { "type": "MultiPolygon", "coordinates": [ [ [ [ 20.538747793435711, 50.836657317504006 ], [ 20.54087150490232, 50.838878315422164 ], [ 20.538895696232981, 50.841153418440662 ], [ 20.54101962348669, 50.843374410153331 ], [ 20.539043636913576, 50.845649515582352 ], [ 20.541167780011108, 50.847870501088714 ], [ 20.539191615490221, 50.850145608929076 ], [ 20.541315974488324, 50.852366588228307 ], [ 20.53933963197565, 50.854641698480833 ], [ 20.541464206931092, 50.856862671572124 ], [ 20.539487686382603, 50.85913778423766 ], [ 20.541612477352182, 50.861358751120164 ], [ 20.539635778723831, 50.863633866199521 ], [ 20.541760785764357, 50.865854826872443 ], [ 20.53978390901208, 50.868129944366459 ], [ 20.541909132180379, 50.870350898828967 ], [ 20.539932077260115, 50.872626018738458 ], [ 20.542057516613035, 50.874846966989729 ], [ 20.540080283480698, 50.877122089315542 ], [ 20.542205939075114, 50.879343031354772 ], [ 20.540228527686597, 50.88161815609773 ], [ 20.542354399579398, 50.883839091924074 ], [ 20.540376809890592, 50.886114219084995 ], [ 20.542502898138686, 50.888335148697635 ], [ 20.540525130105458, 50.890610278277371 ], [ 20.542651434765776, 50.892831201675477 ], [ 20.540673488343995, 50.895106333674867 ], [ 20.542800009473485, 50.897327250857622 ], [ 20.546904655440613, 50.897272924470528 ], [ 20.549031571522548, 50.899493723849261 ], [ 20.547053663244768, 50.901768961202272 ], [ 20.549180795954001, 50.90398975434595 ], [ 20.553286015344028, 50.903935198523648 ], [ 20.555263706943929, 50.901659858248301 ], [ 20.553136395865405, 50.899439176716918 ], [ 20.555113909146598, 50.897163838894834 ], [ 20.552986814739509, 50.894943151110347 ], [ 20.554964149746105, 50.89266781574068 ], [ 20.552837271953429, 50.890447121703914 ], [ 20.554814428729539, 50.888171788785826 ], [ 20.552687767494277, 50.885951088497606 ], [ 20.554664746083983, 50.883675758030265 ], [ 20.552538301349159, 50.881455051491429 ], [ 20.554515101796536, 50.879179723473989 ], [ 20.552388873505194, 50.876959010685376 ], [ 20.554365495854302, 50.874683685116999 ], [ 20.552239483949503, 50.872462966079418 ], [ 20.554215928244389, 50.870187642959287 ], [ 20.552090132669214, 50.867966917673591 ], [ 20.554066398953907, 50.86569159700084 ], [ 20.55194081965146, 50.863470865467853 ], [ 20.553916907969978, 50.861195547241671 ], [ 20.551791544883383, 50.858974809462218 ], [ 20.553767455279729, 50.856699493681774 ], [ 20.551642308352122, 50.854478749656678 ], [ 20.553618040870294, 50.852203436321112 ], [ 20.551493110044838, 50.849982686051199 ], [ 20.553468664728804, 50.8477073751597 ], [ 20.551343949948688, 50.845486618645829 ], [ 20.553319326842409, 50.843211310197553 ], [ 20.551194828050829, 50.840990547440512 ], [ 20.553170027198259, 50.838715241434635 ], [ 20.551045744338438, 50.836494472435277 ], [ 20.553020765783504, 50.834219168870959 ], [ 20.550896698798685, 50.831998393630094 ], [ 20.552871542585311, 50.829723092506498 ], [ 20.550747691418753, 50.827502311024965 ], [ 20.552722357590849, 50.825227012341259 ], [ 20.550598722185832, 50.823006224619881 ], [ 20.552573210787283, 50.820730928375255 ], [ 20.550449791087107, 50.818510134414851 ], [ 20.552424102161801, 50.816234840608438 ], [ 20.550300898109789, 50.814014040409859 ], [ 20.546203560482741, 50.814068422748512 ], [ 20.544229033810154, 50.816343613943495 ], [ 20.546352060329006, 50.818564525411929 ], [ 20.544377356072989, 50.820839719028818 ], [ 20.546500598196122, 50.823060624277048 ], [ 20.544525716312787, 50.825335820316653 ], [ 20.540427376662137, 50.825390008453816 ], [ 20.538452101440242, 50.827665104245746 ], [ 20.540575381502784, 50.82988611457241 ], [ 20.538599928509033, 50.83216121277237 ], [ 20.540723424245268, 50.834382216895193 ], [ 20.538747793435711, 50.836657317504006 ] ] ], [ [ [ 20.528425968963319, 50.834543969391518 ], [ 20.526449728921193, 50.836818866937058 ], [ 20.522350348992585, 50.836872428824151 ], [ 20.520373715341282, 50.839147225978472 ], [ 20.522496677177038, 50.841368564015369 ], [ 20.52051986540787, 50.843643363531939 ], [ 20.522643042841931, 50.845864695418172 ], [ 20.520666052910812, 50.848139497297801 ], [ 20.522789445999855, 50.850360823032553 ], [ 20.520812277862696, 50.852635627276065 ], [ 20.522935886663404, 50.854856946858547 ], [ 20.520958540276109, 50.857131753466774 ], [ 20.523082364845191, 50.859353066896141 ], [ 20.521104840163638, 50.861627875869885 ], [ 20.52322888055782, 50.863849183145348 ], [ 20.521251177537877, 50.866123994485434 ], [ 20.523375433813914, 50.868345295606197 ], [ 20.52139755241144, 50.87062010931345 ], [ 20.523522024626089, 50.872841404278667 ], [ 20.521543964796926, 50.875116220353917 ], [ 20.523668653006986, 50.877337509162807 ], [ 20.527771579500246, 50.877283870453383 ], [ 20.529749423283523, 50.875008951478094 ], [ 20.533852133680405, 50.874955100804208 ], [ 20.535977394770768, 50.877176160528705 ], [ 20.540080283480695, 50.877122089315542 ], [ 20.542057516613035, 50.874846966989729 ], [ 20.539932077260111, 50.872626018738458 ], [ 20.541909132180379, 50.870350898828967 ], [ 20.539783909012076, 50.868129944366459 ], [ 20.541760785764353, 50.865854826872443 ], [ 20.539635778723827, 50.863633866199521 ], [ 20.541612477352182, 50.861358751120164 ], [ 20.5394876863826, 50.85913778423766 ], [ 20.541464206931092, 50.856862671572124 ], [ 20.539339631975647, 50.854641698480833 ], [ 20.54131597448832, 50.852366588228307 ], [ 20.539191615490218, 50.850145608929076 ], [ 20.541167780011104, 50.847870501088714 ], [ 20.539043636913576, 50.845649515582352 ], [ 20.54101962348669, 50.843374410153331 ], [ 20.538895696232981, 50.841153418440662 ], [ 20.54087150490232, 50.838878315422164 ], [ 20.538747793435707, 50.836657317504006 ], [ 20.540723424245265, 50.834382216895193 ], [ 20.538599928509033, 50.83216121277237 ], [ 20.54057538150278, 50.82988611457241 ], [ 20.538452101440239, 50.827665104245746 ], [ 20.534353546172571, 50.827719080826611 ], [ 20.532377877555454, 50.829994076328191 ], [ 20.534500979795833, 50.83221519794796 ], [ 20.53252513330623, 50.834490195842037 ], [ 20.528425968963319, 50.834543969391518 ] ] ], [ [ [ 20.510342465945055, 50.846024568198885 ], [ 20.508364866586156, 50.848299166773835 ], [ 20.510487687494795, 50.850520721273433 ], [ 20.508509909772407, 50.852795322180313 ], [ 20.510632946247778, 50.855016870564441 ], [ 20.508654990117744, 50.857291473804082 ], [ 20.51077824221651, 50.859513016071929 ], [ 20.514879628880315, 50.859459843759986 ], [ 20.51700327510471, 50.861681268553262 ], [ 20.521104840163634, 50.861627875869885 ], [ 20.523082364845187, 50.859353066896141 ], [ 20.520958540276109, 50.857131753466774 ], [ 20.522935886663404, 50.854856946858547 ], [ 20.520812277862696, 50.852635627276065 ], [ 20.522789445999855, 50.850360823032553 ], [ 20.520666052910812, 50.848139497297801 ], [ 20.522643042841931, 50.845864695418172 ], [ 20.520519865407866, 50.843643363531939 ], [ 20.522496677177038, 50.841368564015369 ], [ 20.520373715341282, 50.839147225978472 ], [ 20.516274119871014, 50.839200576166903 ], [ 20.514297092553903, 50.841475272887322 ], [ 20.510197281586056, 50.841528411340811 ], [ 20.508219860546504, 50.843803007584626 ], [ 20.510342465945055, 50.846024568198885 ] ] ], [ [ [ 20.517441216774522, 50.875169638553778 ], [ 20.515462762472776, 50.877444354070619 ], [ 20.517587272161474, 50.879665754315468 ], [ 20.521690414706953, 50.879612327606857 ], [ 20.523668653006983, 50.877337509162807 ], [ 20.521543964796923, 50.875116220353917 ], [ 20.523522024626089, 50.872841404278667 ], [ 20.521397552411436, 50.87062010931345 ], [ 20.523375433813914, 50.868345295606197 ], [ 20.521251177537877, 50.866123994485434 ], [ 20.517149218258719, 50.866177395672679 ], [ 20.515171120968091, 50.868452106485499 ], [ 20.51729519881113, 50.870673519006189 ], [ 20.515316923037041, 50.8729482321706 ], [ 20.517441216774522, 50.875169638553778 ] ] ], [ [ [ 20.542354399579398, 50.883839091924074 ], [ 20.540228527686597, 50.88161815609773 ], [ 20.536125244422113, 50.881672235923702 ], [ 20.534147438428533, 50.883947260189821 ], [ 20.536273131970528, 50.886168307525445 ], [ 20.540376809890589, 50.886114219084995 ], [ 20.542354399579398, 50.883839091924074 ] ] ], [ [ [ 20.550152043241081, 50.809517942604899 ], [ 20.552275031701583, 50.811738749040842 ], [ 20.550300898109793, 50.814014040409859 ], [ 20.552424102161801, 50.816234840608438 ], [ 20.550449791087111, 50.818510134414851 ], [ 20.552573210787287, 50.820730928375255 ], [ 20.550598722185832, 50.823006224619881 ], [ 20.552722357590849, 50.825227012341259 ], [ 20.550747691418756, 50.827502311024965 ], [ 20.552871542585315, 50.829723092506498 ], [ 20.550896698798685, 50.831998393630094 ], [ 20.553020765783508, 50.834219168870959 ], [ 20.551045744338438, 50.836494472435277 ], [ 20.553170027198259, 50.838715241434635 ], [ 20.551194828050832, 50.840990547440512 ], [ 20.553319326842413, 50.843211310197553 ], [ 20.551343949948688, 50.845486618645829 ], [ 20.553468664728804, 50.8477073751597 ], [ 20.551493110044841, 50.849982686051199 ], [ 20.553618040870294, 50.852203436321112 ], [ 20.551642308352125, 50.854478749656678 ], [ 20.553767455279729, 50.856699493681774 ], [ 20.551791544883383, 50.858974809462218 ], [ 20.553916907969981, 50.861195547241671 ], [ 20.55194081965146, 50.863470865467853 ], [ 20.554066398953907, 50.86569159700084 ], [ 20.552090132669214, 50.867966917673591 ], [ 20.554215928244393, 50.870187642959287 ], [ 20.552239483949503, 50.872462966079418 ], [ 20.554365495854302, 50.874683685116999 ], [ 20.552388873505198, 50.876959010685368 ], [ 20.55451510179654, 50.879179723473989 ], [ 20.552538301349159, 50.881455051491429 ], [ 20.554664746083986, 50.883675758030265 ], [ 20.552687767494277, 50.885951088497606 ], [ 20.554814428729539, 50.888171788785826 ], [ 20.552837271953429, 50.890447121703914 ], [ 20.554964149746109, 50.89266781574068 ], [ 20.552986814739509, 50.894943151110347 ], [ 20.555113909146598, 50.897163838894834 ], [ 20.553136395865405, 50.899439176716918 ], [ 20.555263706943929, 50.901659858248301 ], [ 20.553286015344028, 50.903935198523648 ], [ 20.555413543151019, 50.906155873801083 ], [ 20.559518940903878, 50.906101097165781 ], [ 20.561646863852761, 50.908321654533651 ], [ 20.565752439911382, 50.908266657052863 ], [ 20.567880758046275, 50.910487096467826 ], [ 20.571986512353551, 50.910431878109087 ], [ 20.573963553312691, 50.90815622913189 ], [ 20.571835056979751, 50.905935901402515 ], [ 20.573811919791453, 50.903660254927729 ], [ 20.571683640433434, 50.901439920888542 ], [ 20.573660325141745, 50.899164276915329 ], [ 20.571532262701531, 50.896943936567162 ], [ 20.5735087693505, 50.894668295094661 ], [ 20.571380923770988, 50.892447948438381 ], [ 20.573357252404637, 50.890172309465754 ], [ 20.571229623628753, 50.887951956502192 ], [ 20.573205774291097, 50.885676320028601 ], [ 20.571078362261776, 50.883455960758603 ], [ 20.573054334996819, 50.881180326783173 ], [ 20.570927139657023, 50.878959961207578 ], [ 20.57290293450875, 50.876684329729507 ], [ 20.570775955801459, 50.874463957849144 ], [ 20.572751572813836, 50.872188328867551 ], [ 20.570624810682055, 50.869967950683275 ], [ 20.572600249899043, 50.86769232419735 ], [ 20.570473704285792, 50.865471939709998 ], [ 20.572448965751338, 50.863196315718866 ], [ 20.570322636599652, 50.860975924929278 ], [ 20.572297720357682, 50.85870030343213 ], [ 20.570171607610622, 50.85647990634115 ], [ 20.572146513705057, 50.85420428733709 ], [ 20.570020617305712, 50.851983883945557 ], [ 20.571995345780447, 50.84970826743379 ], [ 20.569869665671909, 50.847487857742536 ], [ 20.571844216570838, 50.845212243722209 ], [ 20.569718752696232, 50.842991827732071 ], [ 20.571693126063231, 50.840716216202331 ], [ 20.569567878365689, 50.838495793914163 ], [ 20.571542074244615, 50.836220184874179 ], [ 20.569417042667308, 50.833999756288826 ], [ 20.571391061102009, 50.831724149737731 ], [ 20.569266245588107, 50.82950371485601 ], [ 20.571240086622417, 50.827228110792987 ], [ 20.569115487115123, 50.825007669615751 ], [ 20.571089150792861, 50.822732068039961 ], [ 20.5689647672354, 50.820511620568027 ], [ 20.570938253600371, 50.818236021478626 ], [ 20.568814085935973, 50.816015567712846 ], [ 20.570787395031964, 50.813739971108987 ], [ 20.568663443203896, 50.811519511050214 ], [ 20.57063657507469, 50.809243916931059 ], [ 20.568512839026226, 50.807023450580111 ], [ 20.564416148305153, 50.807078467060094 ], [ 20.562442800704989, 50.809353958649247 ], [ 20.558345894304779, 50.809408763785086 ], [ 20.556222728455467, 50.807188068607338 ], [ 20.552125999393827, 50.807242653672454 ], [ 20.550152043241081, 50.809517942604899 ] ] ], [ [ [ 20.571835056979751, 50.905935901402515 ], [ 20.573963553312694, 50.90815622913189 ], [ 20.578069090587906, 50.908100798693866 ], [ 20.580197982093804, 50.91032100840259 ], [ 20.584303697459301, 50.910265357056979 ], [ 20.586432984182199, 50.912485448701695 ], [ 20.590538877580787, 50.912429576416059 ], [ 20.592515089012334, 50.91015362138647 ], [ 20.590385624306951, 50.907933641482515 ], [ 20.592361657806617, 50.905657689003611 ], [ 20.590232410322553, 50.903437702733946 ], [ 20.592208265934325, 50.901161752804875 ], [ 20.590079235614379, 50.898941760170317 ], [ 20.592054913382224, 50.896665812790225 ], [ 20.589926100169219, 50.894445813791641 ], [ 20.591901600137088, 50.892169868959684 ], [ 20.589773003973857, 50.889949863597941 ], [ 20.591748326185691, 50.887673921313272 ], [ 20.589619947015091, 50.885453909589188 ], [ 20.591595091514826, 50.883177969850948 ], [ 20.589466929279737, 50.880957951765403 ], [ 20.59144189611127, 50.878682014572718 ], [ 20.589313950754597, 50.876461990126565 ], [ 20.591288739961833, 50.874186055478589 ], [ 20.589161011426491, 50.87196602467268 ], [ 20.591135623053315, 50.869690092568575 ], [ 20.589008111282244, 50.867470055403764 ], [ 20.590982545372523, 50.865194125842663 ], [ 20.588855250308676, 50.862974082319802 ], [ 20.590829506906271, 50.860698155300845 ], [ 20.588702428492635, 50.858478105420794 ], [ 20.590676507641387, 50.856202180943143 ], [ 20.588549645820954, 50.853982124706711 ], [ 20.59052354756469, 50.851706202769527 ], [ 20.588396902280483, 50.849486140177603 ], [ 20.590370626663017, 50.847210220780013 ], [ 20.588244197858074, 50.844990151833443 ], [ 20.590217744923212, 50.842714234974608 ], [ 20.588091532540592, 50.840494159674229 ], [ 20.590064902332113, 50.838218245353303 ], [ 20.587938906314896, 50.83599816369999 ], [ 20.589912098876574, 50.833722251916107 ], [ 20.587786319167858, 50.831502163910685 ], [ 20.589759334543459, 50.829226254663006 ], [ 20.587633771086356, 50.827006160306333 ], [ 20.589606609319627, 50.824730253594005 ], [ 20.587481262057281, 50.82251015288692 ], [ 20.589453923191947, 50.820234248709099 ], [ 20.587328792067517, 50.818014141652469 ], [ 20.589301276147296, 50.815738240008308 ], [ 20.58717636110396, 50.813518126602951 ], [ 20.58307913900877, 50.813573803480637 ], [ 20.581106438898153, 50.81584960262731 ], [ 20.577009000822386, 50.8159050681693 ], [ 20.574884655939275, 50.813684725734724 ], [ 20.576857571980224, 50.811409029096396 ], [ 20.574733442977202, 50.809188680350836 ], [ 20.57063657507469, 50.809243916931059 ], [ 20.568663443203896, 50.811519511050214 ], [ 20.570787395031964, 50.813739971108987 ], [ 20.568814085935973, 50.816015567712846 ], [ 20.570938253600371, 50.818236021478626 ], [ 20.5689647672354, 50.820511620568027 ], [ 20.571089150792861, 50.822732068039961 ], [ 20.569115487115127, 50.825007669615751 ], [ 20.571240086622421, 50.827228110792987 ], [ 20.569266245588111, 50.82950371485601 ], [ 20.571391061102013, 50.831724149737731 ], [ 20.569417042667311, 50.833999756288826 ], [ 20.571542074244618, 50.836220184874179 ], [ 20.569567878365692, 50.838495793914163 ], [ 20.571693126063234, 50.840716216202324 ], [ 20.569718752696232, 50.842991827732071 ], [ 20.571844216570842, 50.845212243722209 ], [ 20.569869665671913, 50.847487857742536 ], [ 20.571995345780447, 50.84970826743379 ], [ 20.570020617305712, 50.851983883945557 ], [ 20.572146513705057, 50.85420428733709 ], [ 20.570171607610625, 50.85647990634115 ], [ 20.572297720357682, 50.85870030343213 ], [ 20.570322636599652, 50.860975924929278 ], [ 20.572448965751338, 50.863196315718866 ], [ 20.570473704285792, 50.865471939709998 ], [ 20.572600249899047, 50.86769232419735 ], [ 20.570624810682055, 50.869967950683275 ], [ 20.572751572813839, 50.872188328867551 ], [ 20.570775955801462, 50.874463957849144 ], [ 20.57290293450875, 50.876684329729507 ], [ 20.570927139657023, 50.878959961207578 ], [ 20.573054334996822, 50.881180326783173 ], [ 20.571078362261776, 50.883455960758603 ], [ 20.573205774291097, 50.885676320028601 ], [ 20.571229623628753, 50.887951956502192 ], [ 20.573357252404641, 50.890172309465754 ], [ 20.571380923770988, 50.892447948438381 ], [ 20.5735087693505, 50.894668295094661 ], [ 20.571532262701535, 50.896943936567162 ], [ 20.573660325141745, 50.899164276915329 ], [ 20.571683640433434, 50.901439920888542 ], [ 20.573811919791453, 50.903660254927729 ], [ 20.571835056979751, 50.905935901402515 ] ] ], [ [ [ 20.591135623053315, 50.869690092568575 ], [ 20.589161011426494, 50.87196602467268 ], [ 20.591288739961836, 50.874186055478589 ], [ 20.589313950754597, 50.876461990126565 ], [ 20.591441896111274, 50.878682014572718 ], [ 20.589466929279737, 50.880957951765403 ], [ 20.591595091514826, 50.883177969850948 ], [ 20.589619947015095, 50.885453909589188 ], [ 20.591748326185694, 50.887673921313272 ], [ 20.589773003973857, 50.889949863597941 ], [ 20.591901600137088, 50.892169868959684 ], [ 20.589926100169219, 50.894445813791641 ], [ 20.592054913382228, 50.896665812790225 ], [ 20.590079235614382, 50.898941760170317 ], [ 20.592208265934325, 50.901161752804875 ], [ 20.590232410322557, 50.903437702733946 ], [ 20.592361657806617, 50.905657689003611 ], [ 20.590385624306954, 50.907933641482515 ], [ 20.592515089012334, 50.91015362138647 ], [ 20.590538877580791, 50.912429576416059 ], [ 20.592668559564711, 50.914649549953431 ], [ 20.596774630939173, 50.914593456695336 ], [ 20.598904708228119, 50.916813312081992 ], [ 20.603010957521189, 50.916756997818979 ], [ 20.604986734193183, 50.914480837140701 ], [ 20.609092766005237, 50.914424310846357 ], [ 20.61106814738552, 50.912148049959896 ], [ 20.608937714461838, 50.909928418158678 ], [ 20.610912918125983, 50.907652159871148 ], [ 20.608782702669959, 50.90543252164823 ], [ 20.610757728661874, 50.903156265958771 ], [ 20.60862773061622, 50.900936621315012 ], [ 20.610602578979801, 50.898660368222757 ], [ 20.608472798287259, 50.896440717159024 ], [ 20.610447469066379, 50.894164466663128 ], [ 20.608317905669708, 50.891944809180274 ], [ 20.610292398908236, 50.889668561279855 ], [ 20.608163052750207, 50.887448897378768 ], [ 20.610137368491994, 50.885172652072967 ], [ 20.60800823951541, 50.882952981754485 ], [ 20.609982377804297, 50.880676739042457 ], [ 20.607853465951969, 50.878457062307447 ], [ 20.609827426831782, 50.87618082218831 ], [ 20.607698732046547, 50.873961139037654 ], [ 20.60967251556109, 50.871684901510541 ], [ 20.607544037785811, 50.869465211945105 ], [ 20.609517643978887, 50.867188977009178 ], [ 20.607389383156438, 50.864969281029808 ], [ 20.609362812071822, 50.862693048684186 ], [ 20.607234768145105, 50.860473346291755 ], [ 20.609208019826568, 50.858197116535592 ], [ 20.607080192738497, 50.855977407730947 ], [ 20.609053267229793, 50.853701180563377 ], [ 20.606925656923302, 50.851481465347398 ], [ 20.60889855426818, 50.849205240767553 ], [ 20.606771160686229, 50.846985519141093 ], [ 20.608743880928408, 50.844709297148135 ], [ 20.60661670401398, 50.842489569112061 ], [ 20.608589247197173, 50.840213349705103 ], [ 20.606462286893258, 50.837993615260281 ], [ 20.608434653061167, 50.835717398438483 ], [ 20.606307909310782, 50.833497657585767 ], [ 20.608280098507098, 50.831221443348262 ], [ 20.606153571253284, 50.829001696088504 ], [ 20.608125583521669, 50.826725484434441 ], [ 20.605999272707479, 50.824505730768522 ], [ 20.607971108091601, 50.822229521697047 ], [ 20.605845013660115, 50.820009761625805 ], [ 20.607816672203612, 50.817733555136044 ], [ 20.605690794097924, 50.815513788660354 ], [ 20.607662275844433, 50.813237584751455 ], [ 20.605536614007661, 50.811017811872169 ], [ 20.607507919000792, 50.808741610543301 ], [ 20.605382473376071, 50.806521831261286 ], [ 20.601285899484733, 50.806578141928128 ], [ 20.599160846731611, 50.804358244881513 ], [ 20.595064449606866, 50.804414335392039 ], [ 20.593092712390526, 50.806690331878066 ], [ 20.588996099254619, 50.806746211159016 ], [ 20.58702396915351, 50.809022107738407 ], [ 20.589148668172559, 50.811242227491597 ], [ 20.58717636110396, 50.813518126602951 ], [ 20.589301276147296, 50.815738240008308 ], [ 20.58732879206752, 50.818014141652469 ], [ 20.589453923191947, 50.820234248709099 ], [ 20.587481262057281, 50.82251015288692 ], [ 20.589606609319627, 50.824730253594005 ], [ 20.58763377108636, 50.827006160306333 ], [ 20.589759334543462, 50.829226254663006 ], [ 20.587786319167858, 50.831502163910685 ], [ 20.589912098876578, 50.833722251916107 ], [ 20.587938906314896, 50.83599816369999 ], [ 20.590064902332113, 50.838218245353303 ], [ 20.588091532540592, 50.840494159674229 ], [ 20.590217744923212, 50.842714234974608 ], [ 20.588244197858078, 50.844990151833443 ], [ 20.59037062666302, 50.847210220780013 ], [ 20.588396902280483, 50.849486140177603 ], [ 20.59052354756469, 50.851706202769527 ], [ 20.588549645820954, 50.853982124706711 ], [ 20.590676507641387, 50.856202180943143 ], [ 20.588702428492635, 50.858478105420794 ], [ 20.590829506906275, 50.860698155300845 ], [ 20.588855250308679, 50.862974082319802 ], [ 20.590982545372523, 50.865194125842663 ], [ 20.589008111282244, 50.867470055403764 ], [ 20.591135623053315, 50.869690092568575 ] ] ], [ [ [ 20.607544037785814, 50.869465211945105 ], [ 20.60967251556109, 50.871684901510541 ], [ 20.607698732046551, 50.873961139037654 ], [ 20.609827426831782, 50.87618082218831 ], [ 20.607853465951973, 50.878457062307447 ], [ 20.609982377804297, 50.880676739042457 ], [ 20.608008239515414, 50.882952981754485 ], [ 20.610137368491994, 50.885172652072967 ], [ 20.608163052750211, 50.887448897378768 ], [ 20.610292398908236, 50.889668561279855 ], [ 20.608317905669708, 50.891944809180274 ], [ 20.610447469066379, 50.894164466663128 ], [ 20.608472798287263, 50.896440717159024 ], [ 20.610602578979801, 50.898660368222757 ], [ 20.608627730616224, 50.900936621315012 ], [ 20.610757728661874, 50.903156265958771 ], [ 20.608782702669963, 50.90543252164823 ], [ 20.610912918125987, 50.907652159871148 ], [ 20.608937714461838, 50.909928418158678 ], [ 20.61106814738552, 50.912148049959896 ], [ 20.60909276600524, 50.914424310846357 ], [ 20.611223416453878, 50.916643936224993 ], [ 20.615329626025989, 50.916587188896209 ], [ 20.617304789830694, 50.914310825229087 ], [ 20.621410781776607, 50.914253865908378 ], [ 20.62338555030302, 50.911977402103183 ], [ 20.62125454453674, 50.909758000371369 ], [ 20.623229135505557, 50.907481539196958 ], [ 20.627334514611061, 50.907424377027596 ], [ 20.629308710460151, 50.905147815773404 ], [ 20.627177744843451, 50.902928519397548 ], [ 20.629151763279967, 50.900651960788743 ], [ 20.627021015262486, 50.898432657936908 ], [ 20.628994856330234, 50.896156101972629 ], [ 20.626864325854658, 50.893936792645704 ], [ 20.628837989597425, 50.891660239325063 ], [ 20.626707676606447, 50.8894409235239 ], [ 20.628681163068013, 50.887164372846051 ], [ 20.626551067504348, 50.884945050571538 ], [ 20.628524376728475, 50.882668502535587 ], [ 20.626394498534857, 50.880449173788612 ], [ 20.6283676305653, 50.878172628393706 ], [ 20.626237969684482, 50.875953293175108 ], [ 20.628210924564975, 50.873676750420366 ], [ 20.626081480939739, 50.871457408731047 ], [ 20.628054258714002, 50.869180868615615 ], [ 20.625925032287142, 50.866961520456442 ], [ 20.627897632998888, 50.864684982979433 ], [ 20.625768623713213, 50.862465628351281 ], [ 20.627741047406136, 50.860189093511842 ], [ 20.625612255204491, 50.857969732415597 ], [ 20.627584501922268, 50.855693200212833 ], [ 20.625455926747506, 50.853473832649357 ], [ 20.627427996533811, 50.851197303082422 ], [ 20.625299638328801, 50.84897792905258 ], [ 20.627271531227283, 50.846701402120608 ], [ 20.62514338993493, 50.844482021625275 ], [ 20.627115105989226, 50.842205497327399 ], [ 20.624987181552445, 50.839986110367455 ], [ 20.626958720806183, 50.837709588702786 ], [ 20.62483101316791, 50.835490195279114 ], [ 20.626802375664706, 50.8332136762468 ], [ 20.624674884767888, 50.830994276360258 ], [ 20.626646070551338, 50.828717759959432 ], [ 20.624518796338958, 50.826498353610887 ], [ 20.626489805452646, 50.824221839840682 ], [ 20.624362747867703, 50.822002427031023 ], [ 20.626333580355197, 50.819725915890558 ], [ 20.624206739340703, 50.817506496620652 ], [ 20.626177395245563, 50.815229988109081 ], [ 20.624050770744553, 50.813010562379787 ], [ 20.62602125011032, 50.810734056496237 ], [ 20.623894842065852, 50.808514624308451 ], [ 20.625865144936061, 50.806238121052061 ], [ 20.623738953291205, 50.804018682406621 ], [ 20.62570907970937, 50.801742181776525 ], [ 20.623583104407224, 50.799522736674312 ], [ 20.625553054416844, 50.797246238669636 ], [ 20.623427295400528, 50.795026787111546 ], [ 20.625397069045093, 50.79275029173143 ], [ 20.623271526257735, 50.790530833718286 ], [ 20.619176386164114, 50.790587759722456 ], [ 20.617206396340748, 50.792864152800632 ], [ 20.613111040118486, 50.792920867753899 ], [ 20.611140657737927, 50.795197161111282 ], [ 20.613265847681475, 50.797416841845184 ], [ 20.611295288778667, 50.799693137795437 ], [ 20.613420694864157, 50.801912812110324 ], [ 20.611449959395564, 50.804189110654306 ], [ 20.607353601659433, 50.804245632511545 ], [ 20.605382473376071, 50.806521831261286 ], [ 20.607507919000792, 50.808741610543301 ], [ 20.605536614007661, 50.811017811872169 ], [ 20.607662275844433, 50.813237584751455 ], [ 20.605690794097924, 50.815513788660354 ], [ 20.607816672203615, 50.817733555136044 ], [ 20.605845013660115, 50.820009761625805 ], [ 20.607971108091604, 50.822229521697047 ], [ 20.605999272707482, 50.824505730768522 ], [ 20.608125583521673, 50.826725484434441 ], [ 20.606153571253284, 50.829001696088504 ], [ 20.608280098507098, 50.831221443348262 ], [ 20.606307909310782, 50.833497657585767 ], [ 20.60843465306117, 50.835717398438483 ], [ 20.606462286893258, 50.837993615260281 ], [ 20.608589247197173, 50.840213349705103 ], [ 20.60661670401398, 50.842489569112061 ], [ 20.608743880928412, 50.844709297148135 ], [ 20.606771160686232, 50.846985519141093 ], [ 20.60889855426818, 50.849205240767553 ], [ 20.606925656923305, 50.851481465347398 ], [ 20.609053267229797, 50.853701180563377 ], [ 20.607080192738497, 50.855977407730947 ], [ 20.609208019826571, 50.858197116535592 ], [ 20.607234768145105, 50.860473346291755 ], [ 20.609362812071822, 50.862693048684186 ], [ 20.607389383156438, 50.864969281029808 ], [ 20.609517643978887, 50.867188977009178 ], [ 20.607544037785814, 50.869465211945105 ] ] ], [ [ [ 20.626551067504348, 50.884945050571538 ], [ 20.628681163068013, 50.887164372846051 ], [ 20.626707676606447, 50.8894409235239 ], [ 20.628837989597425, 50.891660239325063 ], [ 20.626864325854658, 50.893936792645704 ], [ 20.628994856330237, 50.896156101972629 ], [ 20.627021015262489, 50.898432657936908 ], [ 20.629151763279967, 50.900651960788743 ], [ 20.627177744843454, 50.902928519397548 ], [ 20.629308710460155, 50.905147815773404 ], [ 20.627334514611064, 50.907424377027596 ], [ 20.629465697884335, 50.909643666926591 ], [ 20.627491324578852, 50.911920230827064 ], [ 20.629622725566062, 50.914139514248319 ], [ 20.633728677342116, 50.9140821219112 ], [ 20.635860473594093, 50.916301286978538 ], [ 20.639966602812969, 50.916243673548038 ], [ 20.641940540488154, 50.913966904228339 ], [ 20.639808566843968, 50.911747851042563 ], [ 20.641782327177552, 50.909471084401815 ], [ 20.639650571392309, 50.907252024701215 ], [ 20.641624154428079, 50.90497526073856 ], [ 20.639492616444372, 50.902756194524024 ], [ 20.641466022226087, 50.900479433238573 ], [ 20.639334701986527, 50.898260360510982 ], [ 20.641307930557939, 50.895983601901861 ], [ 20.639176828005141, 50.893764522662103 ], [ 20.641149879409994, 50.891487766728417 ], [ 20.639018994486612, 50.889268680977388 ], [ 20.640991868768623, 50.886991927718277 ], [ 20.638861201417328, 50.88477283545685 ], [ 20.640833898620208, 50.882496084871434 ], [ 20.638703448783687, 50.88027698610049 ], [ 20.640675968951133, 50.878000238187894 ], [ 20.638545736572091, 50.875781132908308 ], [ 20.640518079747785, 50.873504387667658 ], [ 20.63838806476895, 50.871285275880318 ], [ 20.640360230996563, 50.869008533310733 ], [ 20.638230433360686, 50.866789415016527 ], [ 20.640202422683867, 50.864512675117133 ], [ 20.638072842333713, 50.862293550316942 ], [ 20.64004465479611, 50.860016813086872 ], [ 20.637915291674471, 50.857797681781584 ], [ 20.639886927319704, 50.855520947219958 ], [ 20.637757781369384, 50.853301809410418 ], [ 20.639729240241071, 50.851025077516368 ], [ 20.637600311404903, 50.848805933203487 ], [ 20.639571593546645, 50.846529203976132 ], [ 20.63744288176747, 50.844310053160804 ], [ 20.639413987222849, 50.842033326599264 ], [ 20.637285492443542, 50.839814169282349 ], [ 20.639256421256132, 50.837537445385749 ], [ 20.637128143419581, 50.835318281568128 ], [ 20.639098895632941, 50.833041560335637 ], [ 20.63697083468205, 50.830822390018184 ], [ 20.638941410339726, 50.828545671448879 ], [ 20.636813566217423, 50.826326494632482 ], [ 20.638783965362943, 50.824049778725517 ], [ 20.636656338012184, 50.821830595411058 ], [ 20.638626560689062, 50.819553882165557 ], [ 20.63649915005281, 50.817334692353896 ], [ 20.638469196304555, 50.815057981768987 ], [ 20.636342002325797, 50.812838785461025 ], [ 20.638311872195903, 50.810562077535828 ], [ 20.636184894817646, 50.808342874732446 ], [ 20.638154588349579, 50.806066169466099 ], [ 20.636027827514859, 50.803846960168144 ], [ 20.63193154945964, 50.803904344689222 ], [ 20.629805181412944, 50.80168501746757 ], [ 20.62570907970937, 50.801742181776525 ], [ 20.623738953291209, 50.804018682406621 ], [ 20.625865144936061, 50.806238121052061 ], [ 20.623894842065852, 50.808514624308451 ], [ 20.626021250110323, 50.810734056496237 ], [ 20.624050770744553, 50.813010562379787 ], [ 20.626177395245563, 50.815229988109081 ], [ 20.624206739340703, 50.817506496620652 ], [ 20.626333580355197, 50.819725915890558 ], [ 20.624362747867703, 50.822002427031023 ], [ 20.62648980545265, 50.824221839840682 ], [ 20.624518796338961, 50.826498353610887 ], [ 20.626646070551342, 50.828717759959432 ], [ 20.624674884767892, 50.830994276360258 ], [ 20.626802375664706, 50.8332136762468 ], [ 20.624831013167913, 50.835490195279114 ], [ 20.626958720806186, 50.837709588702786 ], [ 20.624987181552445, 50.839986110367455 ], [ 20.627115105989226, 50.842205497327399 ], [ 20.625143389934934, 50.844482021625275 ], [ 20.627271531227283, 50.846701402120608 ], [ 20.625299638328805, 50.84897792905258 ], [ 20.627427996533811, 50.851197303082422 ], [ 20.625455926747509, 50.853473832649357 ], [ 20.627584501922271, 50.855693200212833 ], [ 20.625612255204494, 50.857969732415597 ], [ 20.627741047406136, 50.860189093511842 ], [ 20.625768623713213, 50.862465628351281 ], [ 20.627897632998888, 50.864684982979433 ], [ 20.625925032287142, 50.866961520456442 ], [ 20.628054258714005, 50.869180868615615 ], [ 20.626081480939742, 50.871457408731047 ], [ 20.628210924564975, 50.873676750420366 ], [ 20.626237969684485, 50.875953293175108 ], [ 20.6283676305653, 50.878172628393706 ], [ 20.626394498534861, 50.880449173788612 ], [ 20.628524376728478, 50.882668502535587 ], [ 20.626551067504348, 50.884945050571538 ] ] ], [ [ [ 20.636342002325797, 50.812838785461025 ], [ 20.638469196304555, 50.815057981768987 ], [ 20.636499150052813, 50.817334692353896 ], [ 20.638626560689065, 50.819553882165557 ], [ 20.636656338012184, 50.821830595411058 ], [ 20.638783965362943, 50.824049778725517 ], [ 20.636813566217427, 50.826326494632482 ], [ 20.638941410339726, 50.828545671448879 ], [ 20.636970834682053, 50.830822390018184 ], [ 20.639098895632941, 50.833041560335637 ], [ 20.637128143419581, 50.835318281568128 ], [ 20.639256421256135, 50.837537445385749 ], [ 20.637285492443546, 50.839814169282349 ], [ 20.639413987222852, 50.842033326599264 ], [ 20.63744288176747, 50.844310053160804 ], [ 20.639571593546645, 50.846529203976132 ], [ 20.637600311404906, 50.848805933203487 ], [ 20.639729240241074, 50.851025077516368 ], [ 20.637757781369388, 50.853301809410418 ], [ 20.639886927319708, 50.855520947219958 ], [ 20.637915291674471, 50.857797681781584 ], [ 20.64004465479611, 50.860016813086872 ], [ 20.638072842333713, 50.862293550316942 ], [ 20.640202422683867, 50.864512675117133 ], [ 20.638230433360686, 50.866789415016527 ], [ 20.640360230996563, 50.869008533310733 ], [ 20.638388064768954, 50.871285275880318 ], [ 20.640518079747785, 50.873504387667658 ], [ 20.638545736572091, 50.875781132908308 ], [ 20.640675968951136, 50.878000238187894 ], [ 20.638703448783687, 50.88027698610049 ], [ 20.640833898620212, 50.882496084871434 ], [ 20.638861201417331, 50.88477283545685 ], [ 20.640991868768626, 50.886991927718277 ], [ 20.639018994486616, 50.889268680977388 ], [ 20.641149879409994, 50.891487766728417 ], [ 20.639176828005144, 50.893764522662103 ], [ 20.641307930557939, 50.895983601901861 ], [ 20.639334701986527, 50.898260360510982 ], [ 20.641466022226091, 50.900479433238573 ], [ 20.639492616444375, 50.902756194524024 ], [ 20.641624154428083, 50.90497526073856 ], [ 20.639650571392313, 50.907252024701215 ], [ 20.641782327177552, 50.909471084401815 ], [ 20.645887843279514, 50.909413268269311 ], [ 20.647861208463166, 50.907136401646191 ], [ 20.651966506662419, 50.907078373670799 ], [ 20.653939476753571, 50.904801407108067 ], [ 20.658044557006388, 50.90474316732633 ], [ 20.660017132062489, 50.902466100866739 ], [ 20.657884844839039, 50.900247376793992 ], [ 20.659857242900785, 50.897970313058842 ], [ 20.657725173610011, 50.895751582417837 ], [ 20.659697394721068, 50.893474521406247 ], [ 20.657565543305537, 50.891255784197909 ], [ 20.659537587509551, 50.888978725908956 ], [ 20.657405953911852, 50.886759982134166 ], [ 20.659377821252455, 50.884482926567003 ], [ 20.65724640541519, 50.882264176226656 ], [ 20.659218095936019, 50.879987123380381 ], [ 20.657086897801815, 50.877768366475365 ], [ 20.659058411546464, 50.875491316349105 ], [ 20.656927431057969, 50.873272552880316 ], [ 20.658898768070038, 50.870995505473175 ], [ 20.656768005169919, 50.868776735441521 ], [ 20.658739165492989, 50.866499690752619 ], [ 20.656608620123929, 50.864280914158968 ], [ 20.65857960380157, 50.862003872187437 ], [ 20.656449275906279, 50.859785089032698 ], [ 20.658420082982037, 50.857508049777643 ], [ 20.656289972503238, 50.855289260062705 ], [ 20.658260603020658, 50.85301222352323 ], [ 20.656130709901106, 50.850793427248988 ], [ 20.658101163903705, 50.848516393424219 ], [ 20.655971488086163, 50.846297590591561 ], [ 20.657941765617462, 50.84402055948064 ], [ 20.655812307044716, 50.841801750090454 ], [ 20.657782408148211, 50.839524721692477 ], [ 20.65565316676307, 50.837305905745652 ], [ 20.657623091482247, 50.835028880059738 ], [ 20.655494067227533, 50.832810057557182 ], [ 20.657463815605862, 50.830533034582452 ], [ 20.655335008424423, 50.828314205525047 ], [ 20.657304580505361, 50.826037185260603 ], [ 20.655175990340069, 50.823818349649244 ], [ 20.657145386167059, 50.821541332094235 ], [ 20.655017012960798, 50.819322489929796 ], [ 20.656986232577271, 50.817045475083333 ], [ 20.654858076272951, 50.814826626366724 ], [ 20.650760876536005, 50.814884680958443 ], [ 20.648633113250472, 50.812665714169739 ], [ 20.650602373494483, 50.810388804310819 ], [ 20.648474826953358, 50.808169830989748 ], [ 20.650443911016627, 50.805892923821354 ], [ 20.648316581162891, 50.803673943968782 ], [ 20.644220343399947, 50.803731759806823 ], [ 20.642093406320722, 50.801512661963152 ], [ 20.637997344752083, 50.801570257559781 ], [ 20.636027827514859, 50.803846960168144 ], [ 20.638154588349582, 50.806066169466099 ], [ 20.636184894817646, 50.808342874732446 ], [ 20.638311872195903, 50.810562077535828 ], [ 20.636342002325797, 50.812838785461025 ] ] ], [ [ [ 20.655335008424426, 50.828314205525047 ], [ 20.657463815605862, 50.830533034582452 ], [ 20.655494067227533, 50.832810057557182 ], [ 20.657623091482247, 50.835028880059738 ], [ 20.65565316676307, 50.837305905745652 ], [ 20.657782408148215, 50.839524721692477 ], [ 20.655812307044716, 50.841801750090454 ], [ 20.657941765617466, 50.84402055948064 ], [ 20.655971488086163, 50.846297590591561 ], [ 20.658101163903709, 50.848516393424219 ], [ 20.656130709901106, 50.850793427248988 ], [ 20.658260603020658, 50.85301222352323 ], [ 20.656289972503242, 50.855289260062705 ], [ 20.658420082982037, 50.857508049777643 ], [ 20.656449275906279, 50.859785089032698 ], [ 20.65857960380157, 50.862003872187437 ], [ 20.656608620123933, 50.864280914158968 ], [ 20.658739165492992, 50.866499690752619 ], [ 20.656768005169923, 50.868776735441521 ], [ 20.658898768070042, 50.870995505473175 ], [ 20.656927431057973, 50.873272552880316 ], [ 20.659058411546468, 50.875491316349105 ], [ 20.657086897801818, 50.877768366475365 ], [ 20.659218095936019, 50.879987123380381 ], [ 20.657246405415194, 50.882264176226656 ], [ 20.659377821252459, 50.884482926567003 ], [ 20.657405953911852, 50.886759982134166 ], [ 20.659537587509554, 50.888978725908956 ], [ 20.657565543305537, 50.891255784197909 ], [ 20.659697394721068, 50.893474521406247 ], [ 20.657725173610014, 50.895751582417837 ], [ 20.659857242900785, 50.897970313058842 ], [ 20.657884844839039, 50.900247376793992 ], [ 20.660017132062489, 50.902466100866739 ], [ 20.658044557006392, 50.90474316732633 ], [ 20.660177062219972, 50.906961884829933 ], [ 20.658204310125843, 50.909238954014846 ], [ 20.66033703338703, 50.911457664948422 ], [ 20.658364104211177, 50.913734736859539 ], [ 20.660497045577461, 50.915953441222172 ], [ 20.664603093228159, 50.915894961730224 ], [ 20.666575804248303, 50.913617787191626 ], [ 20.670681633692681, 50.913559095865764 ], [ 20.67281514735738, 50.915777569728647 ], [ 20.676921153768422, 50.915718657221269 ], [ 20.678893251264387, 50.913441280235922 ], [ 20.676759560683632, 50.911222918346333 ], [ 20.678731481314145, 50.908945544135264 ], [ 20.676598009027007, 50.906727175619494 ], [ 20.678569752835678, 50.90444980418183 ], [ 20.676436498784607, 50.902231429040775 ], [ 20.678408065815042, 50.899954060375613 ], [ 20.676275029942495, 50.897735678610189 ], [ 20.678246420238285, 50.895458312716634 ], [ 20.676113602486748, 50.893239924327744 ], [ 20.678084816091463, 50.890962561204915 ], [ 20.675952216403441, 50.888744166193462 ], [ 20.67792325336065, 50.886466805840449 ], [ 20.675790871678668, 50.884248404207348 ], [ 20.677761732031914, 50.881971046623271 ], [ 20.675629568298515, 50.879752638369411 ], [ 20.677600252091334, 50.877475283553366 ], [ 20.675468306249083, 50.875256868679671 ], [ 20.67743881352499, 50.872979516630764 ], [ 20.675307085516476, 50.870761095138121 ], [ 20.677277416318987, 50.868483745855471 ], [ 20.675145906086808, 50.866265317744812 ], [ 20.677116060459412, 50.863987971227509 ], [ 20.674984767946199, 50.861769536499722 ], [ 20.67695474593237, 50.859492192746892 ], [ 20.67482367108077, 50.857273751402872 ], [ 20.676793472723979, 50.854996410413612 ], [ 20.674662615476652, 50.852777962454283 ], [ 20.676632240820354, 50.850500624227699 ], [ 20.674501601119985, 50.848282169653949 ], [ 20.676471050207613, 50.846004834189173 ], [ 20.674340627996916, 50.843786373001905 ], [ 20.676309900871896, 50.841509040298028 ], [ 20.674179696093585, 50.83929057249815 ], [ 20.676148792799328, 50.837013242554285 ], [ 20.674018805396159, 50.8347947681427 ], [ 20.669919897429867, 50.834853512009971 ], [ 20.667790303477357, 50.832634919339903 ], [ 20.66975944132486, 50.830357694450967 ], [ 20.673857955890799, 50.830298959935568 ], [ 20.675826700388239, 50.828021635509067 ], [ 20.673697147563669, 50.825803147876769 ], [ 20.669599026297504, 50.825861873042072 ], [ 20.667469866722428, 50.823643267189205 ], [ 20.663371921552525, 50.823701771878646 ], [ 20.661243155183559, 50.82148304784841 ], [ 20.663212157847841, 50.819205930716763 ], [ 20.66108360848132, 50.816987200115392 ], [ 20.656986232577271, 50.817045475083333 ], [ 20.655017012960801, 50.819322489929796 ], [ 20.657145386167063, 50.821541332094235 ], [ 20.655175990340073, 50.823818349649244 ], [ 20.657304580505365, 50.826037185260603 ], [ 20.655335008424426, 50.828314205525047 ] ] ], [ [ [ 20.676632240820357, 50.850500624227699 ], [ 20.674662615476652, 50.852777962454283 ], [ 20.676793472723979, 50.854996410413612 ], [ 20.67482367108077, 50.857273751402872 ], [ 20.676954745932374, 50.859492192746892 ], [ 20.674984767946199, 50.861769536499722 ], [ 20.677116060459412, 50.863987971227509 ], [ 20.675145906086811, 50.866265317744812 ], [ 20.67727741631899, 50.868483745855471 ], [ 20.675307085516479, 50.870761095138121 ], [ 20.677438813524994, 50.872979516630764 ], [ 20.675468306249083, 50.875256868679671 ], [ 20.677600252091334, 50.877475283553366 ], [ 20.675629568298515, 50.879752638369411 ], [ 20.677761732031914, 50.881971046623271 ], [ 20.675790871678668, 50.884248404207348 ], [ 20.677923253360653, 50.886466805840449 ], [ 20.675952216403441, 50.888744166193462 ], [ 20.678084816091467, 50.890962561204915 ], [ 20.676113602486748, 50.893239924327744 ], [ 20.678246420238288, 50.895458312716634 ], [ 20.676275029942495, 50.897735678610189 ], [ 20.678408065815045, 50.899954060375613 ], [ 20.676436498784607, 50.902231429040775 ], [ 20.678569752835681, 50.90444980418183 ], [ 20.676598009027011, 50.906727175619494 ], [ 20.678731481314145, 50.908945544135264 ], [ 20.676759560683635, 50.911222918346333 ], [ 20.678893251264387, 50.913441280235922 ], [ 20.682999039324237, 50.913382155934229 ], [ 20.684970741610538, 50.911104679161397 ], [ 20.689076311275585, 50.911045343101947 ], [ 20.691047618409819, 50.90876776658439 ], [ 20.688913574300532, 50.906549628659967 ], [ 20.690884704771673, 50.904272054947533 ], [ 20.694989660954462, 50.904212516651711 ], [ 20.696960396432299, 50.901934843252747 ], [ 20.694826394134807, 50.899716810639617 ], [ 20.696796953094214, 50.897439140060271 ], [ 20.694663169163441, 50.895221100767507 ], [ 20.696633551647913, 50.892943433006899 ], [ 20.694499986026283, 50.890725387035417 ], [ 20.696470192079314, 50.888447722092621 ], [ 20.694336844709262, 50.886229669443345 ], [ 20.696306874374326, 50.883952007317482 ], [ 20.69417374519832, 50.881733947991322 ], [ 20.690070762718591, 50.881793438890497 ], [ 20.687938028030651, 50.879575261005193 ], [ 20.683835221952933, 50.879634530943946 ], [ 20.681702881709583, 50.8774162345428 ], [ 20.683673171101304, 50.875138780062549 ], [ 20.681541048792607, 50.872920477023477 ], [ 20.68351116176834, 50.870643025325769 ], [ 20.681379257336864, 50.86842471564966 ], [ 20.683349193940082, 50.86614726673362 ], [ 20.687450817138146, 50.866088025105199 ], [ 20.689420359599463, 50.863810476598445 ], [ 20.693521764934278, 50.863751023583923 ], [ 20.695490913311108, 50.861473375529158 ], [ 20.693358874242996, 50.859255282832336 ], [ 20.695327846492411, 50.85697763758909 ], [ 20.693196025273547, 50.854759538220875 ], [ 20.695164821438926, 50.852481895788237 ], [ 20.693033218011916, 50.850263789749555 ], [ 20.695001838136619, 50.847986150126651 ], [ 20.69287045244409, 50.845768037418395 ], [ 20.688770622640956, 50.845827452577254 ], [ 20.686801784832131, 50.848104989904833 ], [ 20.682701737395238, 50.848164193811428 ], [ 20.680570921489156, 50.845945850963794 ], [ 20.682539976881404, 50.843668415942574 ], [ 20.680409378508397, 50.841450066463338 ], [ 20.676309900871896, 50.841509040298028 ], [ 20.674340627996916, 50.843786373001905 ], [ 20.676471050207613, 50.846004834189173 ], [ 20.674501601119989, 50.848282169653949 ], [ 20.676632240820357, 50.850500624227699 ] ], [ [ 20.690559002765035, 50.895280620099221 ], [ 20.688588225489454, 50.897558188204087 ], [ 20.684483840825415, 50.897617495915227 ], [ 20.682350628268772, 50.895399226074929 ], [ 20.684321623759448, 50.893121760455564 ], [ 20.688425613625363, 50.893062462190237 ], [ 20.690559002765035, 50.895280620099221 ] ] ], [ [ [ 20.695164821438929, 50.852481895788237 ], [ 20.693196025273547, 50.854759538220875 ], [ 20.695327846492415, 50.85697763758909 ], [ 20.693358874242996, 50.859255282832336 ], [ 20.695490913311112, 50.861473375529158 ], [ 20.693521764934278, 50.863751023583923 ], [ 20.695654021909057, 50.865969109608457 ], [ 20.699755603414673, 50.865909435742438 ], [ 20.701724533834433, 50.863631685354548 ], [ 20.705825897332563, 50.863571800142005 ], [ 20.707794433681897, 50.861293950276085 ], [ 20.705661824567148, 50.859076087927797 ], [ 20.707630184947302, 50.85679824090505 ], [ 20.705497793825927, 50.854580371848265 ], [ 20.707465978280226, 50.85230252766776 ], [ 20.705333805094792, 50.850084651903408 ], [ 20.707301813666547, 50.847806810564265 ], [ 20.705169858359628, 50.845588928093271 ], [ 20.701070070336989, 50.845648775175249 ], [ 20.698938508697481, 50.843430774229695 ], [ 20.694838896571468, 50.843490400604317 ], [ 20.69287045244409, 50.845768037418395 ], [ 20.695001838136623, 50.847986150126651 ], [ 20.693033218011919, 50.850263789749555 ], [ 20.695164821438929, 50.852481895788237 ] ] ], [ [ [ 20.705497793825931, 50.854580371848265 ], [ 20.707630184947302, 50.85679824090505 ], [ 20.705661824567148, 50.859076087927797 ], [ 20.707794433681897, 50.861293950276085 ], [ 20.705825897332563, 50.863571800142005 ], [ 20.707958724498162, 50.865789655780901 ], [ 20.712060264008805, 50.865729549687693 ], [ 20.714028582256891, 50.863451597527011 ], [ 20.718129903615875, 50.863391280126883 ], [ 20.720263300799839, 50.865608905282244 ], [ 20.724364798013006, 50.865548366972348 ], [ 20.726332503959465, 50.863270213147253 ], [ 20.724198930971724, 50.861052699887686 ], [ 20.720097827807702, 50.861113228558182 ], [ 20.717964648818697, 50.858895596656296 ], [ 20.713863721465572, 50.858955904452301 ], [ 20.711730936432033, 50.856738153951341 ], [ 20.713698902900024, 50.854460207508602 ], [ 20.711566335903171, 50.852242450281054 ], [ 20.713534126546058, 50.849964506695919 ], [ 20.711401777528437, 50.847746742742721 ], [ 20.713369392389488, 50.845468802014295 ], [ 20.711237261293668, 50.843251031336372 ], [ 20.707137691092136, 50.843311089594565 ], [ 20.705169858359632, 50.845588928093271 ], [ 20.707301813666547, 50.847806810564265 ], [ 20.705333805094796, 50.850084651903408 ], [ 20.707465978280229, 50.85230252766776 ], [ 20.705497793825931, 50.854580371848265 ] ] ], [ [ [ 20.696633551647917, 50.892943433006899 ], [ 20.700737499737183, 50.892883702091176 ], [ 20.702707487488119, 50.890605934717563 ], [ 20.70057374548556, 50.888388000689751 ], [ 20.702543556906083, 50.886110236149349 ], [ 20.700410033198558, 50.883892295425625 ], [ 20.696306874374326, 50.883952007317482 ], [ 20.694336844709266, 50.886229669443345 ], [ 20.696470192079314, 50.888447722092621 ], [ 20.694499986026283, 50.890725387035417 ], [ 20.696633551647917, 50.892943433006899 ] ] ] ] } }
]
}
